<?xml version="1.0" encoding="UTF-8"?>
<seiscomp xmlns="http://geofon.gfz-potsdam.de/ns/seiscomp3-schema/0.13" version="0.13"><EventParameters><pick publicID="Pick/20260401234636.792197.213745"><time><value>2026-04-01T22:48:21.82356Z</value></time><waveformID networkCode="IA" stationCode="BDMUI" channelCode="SHZ"/><phaseHint>P</phaseHint><evaluationMode>manual</evaluationMode><creationInfo><agencyID>BMKG</agencyID><creationTime>2026-04-01T23:46:36.792326Z</creationTime></creationInfo></pick><pick publicID="Pick/20260402022531.067808.217906"><time><value>2026-04-01T22:48:33.769705Z</value></time><waveformID networkCode="IA" stationCode="BDMUI" channelCode="SHN"/><filterID>BW(3,0.7,2)</filterID><phaseHint>S</phaseHint><evaluationMode>manual</evaluationMode><creationInfo><agencyID>BMKG</agencyID><creationTime>2026-04-02T02:25:31.068045Z</creationTime></creationInfo></pick><pick publicID="Pick/20260401233710.448597.387413"><time><value>2026-04-01T22:48:34.299263Z</value></time><waveformID networkCode="IA" stationCode="TNTI" channelCode="SHZ"/><phaseHint>P</phaseHint><evaluationMode>manual</evaluationMode><creationInfo><agencyID>BMKG</agencyID><creationTime>2026-04-01T23:37:10.44864Z</creationTime></creationInfo></pick><pick publicID="Pick/20260401225039.79686.167869"><time><value>2026-04-01T22:48:54.655327Z</value></time><waveformID networkCode="IA" stationCode="TNTI" channelCode="SHZ"/><phaseHint>S</phaseHint><evaluationMode>manual</evaluationMode><creationInfo><agencyID>BMKG</agencyID><creationTime>2026-04-01T22:50:39.796963Z</creationTime></creationInfo></pick><pick publicID="Pick/20260401233710.448681.387414"><time><value>2026-04-01T22:48:34.77261Z</value></time><waveformID networkCode="IA" stationCode="JHMI" locationCode="00" channelCode="SHZ"/><phaseHint>P</phaseHint><evaluationMode>manual</evaluationMode><creationInfo><agencyID>BMKG</agencyID><creationTime>2026-04-01T23:37:10.448717Z</creationTime></creationInfo></pick><pick publicID="Pick/20260401225039.797007.167870"><time><value>2026-04-01T22:48:51.467561Z</value></time><waveformID networkCode="IA" stationCode="JHMI" locationCode="00" channelCode="SHR"/><phaseHint>S</phaseHint><evaluationMode>manual</evaluationMode><creationInfo><agencyID>BMKG</agencyID><creationTime>2026-04-01T22:50:39.797055Z</creationTime></creationInfo></pick><pick publicID="Pick/20260401233710.448756.387415"><time><value>2026-04-01T22:48:35.770651Z</value></time><waveformID networkCode="IA" stationCode="IHMI" locationCode="00" channelCode="SHZ"/><phaseHint>P</phaseHint><evaluationMode>manual</evaluationMode><creationInfo><agencyID>BMKG</agencyID><creationTime>2026-04-01T23:37:10.448792Z</creationTime></creationInfo></pick><pick publicID="Pick/20260401225039.797107.167871"><time><value>2026-04-01T22:48:54.673772Z</value></time><waveformID networkCode="IA" stationCode="IHMI" locationCode="00" channelCode="SHR"/><phaseHint>S</phaseHint><evaluationMode>manual</evaluationMode><creationInfo><agencyID>BMKG</agencyID><creationTime>2026-04-01T22:50:39.797142Z</creationTime></creationInfo></pick><pick publicID="Pick/20260401233710.448836.387416"><time><value>2026-04-01T22:48:37.586546Z</value></time><waveformID networkCode="IA" stationCode="TMSI" channelCode="SHZ"/><phaseHint>P</phaseHint><evaluationMode>manual</evaluationMode><creationInfo><agencyID>BMKG</agencyID><creationTime>2026-04-01T23:37:10.44887Z</creationTime></creationInfo></pick><pick publicID="Pick/20260401233710.448911.387417"><time><value>2026-04-01T22:48:39.06913Z</value></time><waveformID networkCode="IA" stationCode="TASSI" channelCode="SHZ"/><phaseHint>P</phaseHint><evaluationMode>manual</evaluationMode><creationInfo><agencyID>BMKG</agencyID><creationTime>2026-04-01T23:37:10.448945Z</creationTime></creationInfo></pick><pick publicID="Pick/20260401233710.449057.387419"><time><value>2026-04-01T22:48:39.516739Z</value></time><waveformID networkCode="IA" stationCode="MNI" locationCode="00" channelCode="HHZ"/><phaseHint>P</phaseHint><evaluationMode>manual</evaluationMode><creationInfo><agencyID>BMKG</agencyID><creationTime>2026-04-01T23:37:10.449092Z</creationTime></creationInfo></pick><pick publicID="Pick/20260401233710.448985.387418"><time><value>2026-04-01T22:48:38.234616Z</value></time><waveformID networkCode="IA" stationCode="PMMI" locationCode="00" channelCode="SHZ"/><phaseHint>P</phaseHint><evaluationMode>manual</evaluationMode><creationInfo><agencyID>BMKG</agencyID><creationTime>2026-04-01T23:37:10.44902Z</creationTime></creationInfo></pick><pick publicID="Pick/20260401233710.449215.387421"><time><value>2026-04-01T22:48:40.46913Z</value></time><waveformID networkCode="IA" stationCode="GLMI" locationCode="00" channelCode="SHZ"/><phaseHint>P</phaseHint><evaluationMode>manual</evaluationMode><creationInfo><agencyID>BMKG</agencyID><creationTime>2026-04-01T23:37:10.449249Z</creationTime></creationInfo></pick><pick publicID="Pick/20260401225039.797179.167872"><time><value>2026-04-01T22:49:04.559894Z</value></time><waveformID networkCode="IA" stationCode="GLMI" locationCode="00" channelCode="SHR"/><phaseHint>S</phaseHint><evaluationMode>manual</evaluationMode><creationInfo><agencyID>BMKG</agencyID><creationTime>2026-04-01T22:50:39.797213Z</creationTime></creationInfo></pick><pick publicID="Pick/20260401233710.449144.387420"><time><value>2026-04-01T22:48:41.376953Z</value></time><waveformID networkCode="IA" stationCode="WSHHI" channelCode="SHZ"/><phaseHint>P</phaseHint><evaluationMode>manual</evaluationMode><creationInfo><agencyID>BMKG</agencyID><creationTime>2026-04-01T23:37:10.449178Z</creationTime></creationInfo></pick><pick publicID="Pick/20260401233710.449289.387422"><time><value>2026-04-01T22:48:43.437312Z</value></time><waveformID networkCode="IA" stationCode="PSSI" channelCode="SHZ"/><phaseHint>P</phaseHint><evaluationMode>manual</evaluationMode><creationInfo><agencyID>BMKG</agencyID><creationTime>2026-04-01T23:37:10.449322Z</creationTime></creationInfo></pick><pick publicID="Pick/20260401233710.449362.387423"><time><value>2026-04-01T22:48:42.221957Z</value></time><waveformID networkCode="IA" stationCode="TBMCM" channelCode="SHZ"/><phaseHint>P</phaseHint><evaluationMode>manual</evaluationMode><creationInfo><agencyID>BMKG</agencyID><creationTime>2026-04-01T23:37:10.449396Z</creationTime></creationInfo></pick><pick publicID="Pick/20260401233710.449438.387424"><time><value>2026-04-01T22:48:44.567156Z</value></time><waveformID networkCode="IA" stationCode="WBMI" locationCode="00" channelCode="SHZ"/><phaseHint>P</phaseHint><evaluationMode>manual</evaluationMode><creationInfo><agencyID>BMKG</agencyID><creationTime>2026-04-01T23:37:10.449472Z</creationTime></creationInfo></pick><pick publicID="Pick/20260401233710.449512.387425"><time><value>2026-04-01T22:48:46.894787Z</value></time><waveformID networkCode="IA" stationCode="PBMSI" channelCode="SHZ"/><phaseHint>P</phaseHint><evaluationMode>manual</evaluationMode><creationInfo><agencyID>BMKG</agencyID><creationTime>2026-04-01T23:37:10.449547Z</creationTime></creationInfo></pick><pick publicID="Pick/20260401233710.449585.387426"><time><value>2026-04-01T22:48:49.65435Z</value></time><waveformID networkCode="IA" stationCode="MTAI" channelCode="SHZ"/><phaseHint>P</phaseHint><evaluationMode>manual</evaluationMode><creationInfo><agencyID>BMKG</agencyID><creationTime>2026-04-01T23:37:10.449621Z</creationTime></creationInfo></pick><pick publicID="Pick/20260401225039.797246.167873"><time><value>2026-04-01T22:49:21.526578Z</value></time><waveformID networkCode="IA" stationCode="MTAI" channelCode="SHT"/><phaseHint>S</phaseHint><evaluationMode>manual</evaluationMode><creationInfo><agencyID>BMKG</agencyID><creationTime>2026-04-01T22:50:39.797279Z</creationTime></creationInfo></pick><pick publicID="Pick/20260401233710.44966.387427"><time><value>2026-04-01T22:48:49.123047Z</value></time><waveformID networkCode="IA" stationCode="LBMI" locationCode="00" channelCode="SHZ"/><phaseHint>P</phaseHint><evaluationMode>manual</evaluationMode><creationInfo><agencyID>BMKG</agencyID><creationTime>2026-04-01T23:37:10.449695Z</creationTime></creationInfo></pick><pick publicID="Pick/20260401225039.79731.167874"><time><value>2026-04-01T22:49:18.437429Z</value></time><waveformID networkCode="IA" stationCode="LBMI" locationCode="00" channelCode="SHT"/><phaseHint>S</phaseHint><evaluationMode>manual</evaluationMode><creationInfo><agencyID>BMKG</agencyID><creationTime>2026-04-01T22:50:39.797341Z</creationTime></creationInfo></pick><pick publicID="Pick/20260401234636.79244.213746"><time><value>2026-04-01T22:48:51.254787Z</value></time><waveformID networkCode="IA" stationCode="GHMI" locationCode="00" channelCode="SHZ"/><phaseHint>P</phaseHint><evaluationMode>manual</evaluationMode><creationInfo><agencyID>BMKG</agencyID><creationTime>2026-04-01T23:46:36.792476Z</creationTime></creationInfo></pick><pick publicID="Pick/20260401233710.4498.387429"><time><value>2026-04-01T22:48:52.531733Z</value></time><waveformID networkCode="IA" stationCode="KMSI" channelCode="SHZ"/><phaseHint>P</phaseHint><evaluationMode>manual</evaluationMode><creationInfo><agencyID>BMKG</agencyID><creationTime>2026-04-01T23:37:10.449835Z</creationTime></creationInfo></pick><pick publicID="Pick/20260401234636.792528.213747"><time><value>2026-04-01T22:49:22.893356Z</value></time><waveformID networkCode="IA" stationCode="KMSI" channelCode="SHT"/><phaseHint>S</phaseHint><evaluationMode>manual</evaluationMode><creationInfo><agencyID>BMKG</agencyID><creationTime>2026-04-01T23:46:36.792561Z</creationTime></creationInfo></pick><pick publicID="Pick/20260401233710.449875.387430"><time><value>2026-04-01T22:48:54.879464Z</value></time><waveformID networkCode="IA" stationCode="SGSI" locationCode="00" channelCode="SHZ"/><phaseHint>P</phaseHint><evaluationMode>manual</evaluationMode><creationInfo><agencyID>BMKG</agencyID><creationTime>2026-04-01T23:37:10.44991Z</creationTime></creationInfo></pick><pick publicID="Pick/20260401233710.449947.387431"><time><value>2026-04-01T22:48:59.166963Z</value></time><waveformID networkCode="IA" stationCode="MGAI" channelCode="SHZ"/><phaseHint>P</phaseHint><evaluationMode>manual</evaluationMode><creationInfo><agencyID>BMKG</agencyID><creationTime>2026-04-01T23:37:10.449981Z</creationTime></creationInfo></pick><pick publicID="Pick/20260401233710.450018.387432"><time><value>2026-04-01T22:48:58.905008Z</value></time><waveformID networkCode="IA" stationCode="OBMI" channelCode="SHZ"/><phaseHint>P</phaseHint><evaluationMode>manual</evaluationMode><creationInfo><agencyID>BMKG</agencyID><creationTime>2026-04-01T23:37:10.450052Z</creationTime></creationInfo></pick><pick publicID="Pick/20260401233710.450089.387433"><time><value>2026-04-01T22:49:01.947053Z</value></time><waveformID networkCode="IA" stationCode="MUMUI" channelCode="SHZ"/><phaseHint>P</phaseHint><evaluationMode>manual</evaluationMode><creationInfo><agencyID>BMKG</agencyID><creationTime>2026-04-01T23:37:10.450123Z</creationTime></creationInfo></pick><pick publicID="Pick/20260401233710.450164.387434"><time><value>2026-04-01T22:49:05.182695Z</value></time><waveformID networkCode="IA" stationCode="TGCM" locationCode="00" channelCode="SHZ"/><phaseHint>P</phaseHint><evaluationMode>manual</evaluationMode><creationInfo><agencyID>BMKG</agencyID><creationTime>2026-04-01T23:37:10.450198Z</creationTime></creationInfo></pick><pick publicID="Pick/20260401233710.450235.387435"><time><value>2026-04-01T22:49:07.714458Z</value></time><waveformID networkCode="IA" stationCode="KGCM" locationCode="00" channelCode="SHZ"/><phaseHint>P</phaseHint><evaluationMode>manual</evaluationMode><creationInfo><agencyID>BMKG</agencyID><creationTime>2026-04-01T23:37:10.450269Z</creationTime></creationInfo></pick><pick publicID="Pick/20260401233710.450313.387436"><time><value>2026-04-01T22:49:09.247277Z</value></time><waveformID networkCode="IA" stationCode="TBMUI" channelCode="SHZ"/><phaseHint>P</phaseHint><evaluationMode>manual</evaluationMode><creationInfo><agencyID>BMKG</agencyID><creationTime>2026-04-01T23:37:10.450347Z</creationTime></creationInfo></pick><pick publicID="Pick/20260401233710.450382.387437"><time><value>2026-04-01T22:49:12.42967Z</value></time><waveformID networkCode="IA" stationCode="BBLSI" channelCode="SHZ"/><phaseHint>P</phaseHint><evaluationMode>manual</evaluationMode><creationInfo><agencyID>BMKG</agencyID><creationTime>2026-04-01T23:37:10.450417Z</creationTime></creationInfo></pick><pick publicID="Pick/20260401234636.792617.213748"><time><value>2026-04-01T22:49:15.126781Z</value></time><waveformID networkCode="IA" stationCode="GARPI" channelCode="SHZ"/><phaseHint>P</phaseHint><evaluationMode>manual</evaluationMode><creationInfo><agencyID>BMKG</agencyID><creationTime>2026-04-01T23:46:36.792649Z</creationTime></creationInfo></pick><pick publicID="Pick/20260401233710.450523.387439"><time><value>2026-04-01T22:49:17.014144Z</value></time><waveformID networkCode="IA" stationCode="LUWI" channelCode="SHZ"/><phaseHint>P</phaseHint><evaluationMode>manual</evaluationMode><creationInfo><agencyID>BMKG</agencyID><creationTime>2026-04-01T23:37:10.450558Z</creationTime></creationInfo></pick><pick publicID="Pick/20260401233710.450664.387441"><time><value>2026-04-01T22:49:17.592741Z</value></time><waveformID networkCode="IA" stationCode="MISSI" channelCode="SHZ"/><phaseHint>P</phaseHint><evaluationMode>manual</evaluationMode><creationInfo><agencyID>BMKG</agencyID><creationTime>2026-04-01T23:37:10.450699Z</creationTime></creationInfo></pick><pick publicID="Pick/20260401233710.450594.387440"><time><value>2026-04-01T22:49:18.177337Z</value></time><waveformID networkCode="IA" stationCode="KORPI" channelCode="SHZ"/><phaseHint>P</phaseHint><evaluationMode>manual</evaluationMode><creationInfo><agencyID>BMKG</agencyID><creationTime>2026-04-01T23:37:10.450628Z</creationTime></creationInfo></pick><pick publicID="Pick/20260401233710.450736.387442"><time><value>2026-04-01T22:49:21.593383Z</value></time><waveformID networkCode="IA" stationCode="MRSI" channelCode="SHZ"/><phaseHint>P</phaseHint><evaluationMode>manual</evaluationMode><creationInfo><agencyID>BMKG</agencyID><creationTime>2026-04-01T23:37:10.450769Z</creationTime></creationInfo></pick><pick publicID="Pick/20260401233710.450875.387444"><time><value>2026-04-01T22:49:22.2697Z</value></time><waveformID networkCode="IA" stationCode="BUBSI" channelCode="SHZ"/><phaseHint>P</phaseHint><evaluationMode>manual</evaluationMode><creationInfo><agencyID>BMKG</agencyID><creationTime>2026-04-01T23:37:10.45091Z</creationTime></creationInfo></pick><pick publicID="Pick/20260401233710.450808.387443"><time><value>2026-04-01T22:49:21.772929Z</value></time><waveformID networkCode="IA" stationCode="NLAI" locationCode="00" channelCode="SHZ"/><phaseHint>P</phaseHint><evaluationMode>manual</evaluationMode><creationInfo><agencyID>BMKG</agencyID><creationTime>2026-04-01T23:37:10.450842Z</creationTime></creationInfo></pick><pick publicID="Pick/20260401233710.450953.387445"><time><value>2026-04-01T22:49:22.588368Z</value></time><waveformID networkCode="IA" stationCode="UTUSI" channelCode="SHZ"/><phaseHint>P</phaseHint><evaluationMode>manual</evaluationMode><creationInfo><agencyID>BMKG</agencyID><creationTime>2026-04-01T23:37:10.450988Z</creationTime></creationInfo></pick><pick publicID="Pick/20260401233710.451027.387446"><time><value>2026-04-01T22:49:26.090872Z</value></time><waveformID networkCode="IA" stationCode="NSBMM" channelCode="SHZ"/><phaseHint>P</phaseHint><evaluationMode>manual</evaluationMode><creationInfo><agencyID>BMKG</agencyID><creationTime>2026-04-01T23:37:10.45106Z</creationTime></creationInfo></pick><pick publicID="Pick/20260401233710.451102.387447"><time><value>2026-04-01T22:49:28.474194Z</value></time><waveformID networkCode="IA" stationCode="TTSMI" channelCode="SHZ"/><phaseHint>P</phaseHint><evaluationMode>manual</evaluationMode><creationInfo><agencyID>BMKG</agencyID><creationTime>2026-04-01T23:37:10.451137Z</creationTime></creationInfo></pick><pick publicID="Pick/20260401233710.451179.387448"><time><value>2026-04-01T22:49:25.989016Z</value></time><waveformID networkCode="IA" stationCode="TOBSI" channelCode="SHZ"/><phaseHint>P</phaseHint><evaluationMode>manual</evaluationMode><creationInfo><agencyID>BMKG</agencyID><creationTime>2026-04-01T23:37:10.451213Z</creationTime></creationInfo></pick><pick publicID="Pick/20260401233710.451249.387449"><time><value>2026-04-01T22:49:26.775327Z</value></time><waveformID networkCode="IA" stationCode="KARPI" channelCode="SHZ"/><phaseHint>P</phaseHint><evaluationMode>manual</evaluationMode><creationInfo><agencyID>BMKG</agencyID><creationTime>2026-04-01T23:37:10.451283Z</creationTime></creationInfo></pick><pick publicID="Pick/20260401233710.451319.387450"><time><value>2026-04-01T22:49:30.362507Z</value></time><waveformID networkCode="IA" stationCode="KRAI" locationCode="00" channelCode="SHZ"/><phaseHint>P</phaseHint><evaluationMode>manual</evaluationMode><creationInfo><agencyID>BMKG</agencyID><creationTime>2026-04-01T23:37:10.451352Z</creationTime></creationInfo></pick><pick publicID="Pick/20260401233710.451386.387451"><time><value>2026-04-01T22:49:31.127554Z</value></time><waveformID networkCode="IA" stationCode="APSI" channelCode="SHZ"/><phaseHint>P</phaseHint><evaluationMode>manual</evaluationMode><creationInfo><agencyID>BMKG</agencyID><creationTime>2026-04-01T23:37:10.45142Z</creationTime></creationInfo></pick><pick publicID="Pick/20260401233710.451528.387453"><time><value>2026-04-01T22:49:29.476191Z</value></time><waveformID networkCode="IA" stationCode="MBRPI" channelCode="SHZ"/><phaseHint>P</phaseHint><evaluationMode>manual</evaluationMode><creationInfo><agencyID>BMKG</agencyID><creationTime>2026-04-01T23:37:10.451562Z</creationTime></creationInfo></pick><pick publicID="Pick/20260401233710.451457.387452"><time><value>2026-04-01T22:49:32.0951Z</value></time><waveformID networkCode="IA" stationCode="NBMI" locationCode="00" channelCode="SHZ"/><phaseHint>P</phaseHint><evaluationMode>manual</evaluationMode><creationInfo><agencyID>BMKG</agencyID><creationTime>2026-04-01T23:37:10.451491Z</creationTime></creationInfo></pick><pick publicID="Pick/20260401233710.451603.387454"><time><value>2026-04-01T22:49:31.936317Z</value></time><waveformID networkCode="IA" stationCode="TPCI" locationCode="00" channelCode="SHZ"/><phaseHint>P</phaseHint><evaluationMode>manual</evaluationMode><creationInfo><agencyID>BMKG</agencyID><creationTime>2026-04-01T23:37:10.451658Z</creationTime></creationInfo></pick><pick publicID="Pick/20260401233710.451694.387455"><time><value>2026-04-01T22:49:32.908639Z</value></time><waveformID networkCode="IA" stationCode="AAI" channelCode="SHZ"/><phaseHint>P</phaseHint><evaluationMode>manual</evaluationMode><creationInfo><agencyID>BMKG</agencyID><creationTime>2026-04-01T23:37:10.451731Z</creationTime></creationInfo></pick><pick publicID="Pick/20260401233710.451762.387456"><time><value>2026-04-01T22:49:32.964901Z</value></time><waveformID networkCode="IA" stationCode="AAII" locationCode="00" channelCode="SHZ"/><phaseHint>P</phaseHint><evaluationMode>manual</evaluationMode><creationInfo><agencyID>BMKG</agencyID><creationTime>2026-04-01T23:37:10.451796Z</creationTime></creationInfo></pick><pick publicID="Pick/20260401233710.451835.387457"><time><value>2026-04-01T22:49:35.155767Z</value></time><waveformID networkCode="IA" stationCode="MSAI" locationCode="00" channelCode="SHZ"/><phaseHint>P</phaseHint><evaluationMode>manual</evaluationMode><creationInfo><agencyID>BMKG</agencyID><creationTime>2026-04-01T23:37:10.451869Z</creationTime></creationInfo></pick><pick publicID="Pick/20260401233710.45191.387458"><time><value>2026-04-01T22:49:35.426119Z</value></time><waveformID networkCode="IA" stationCode="SIJI" channelCode="BHZ"/><phaseHint>P</phaseHint><evaluationMode>manual</evaluationMode><creationInfo><agencyID>BMKG</agencyID><creationTime>2026-04-01T23:37:10.451944Z</creationTime></creationInfo></pick><pick publicID="Pick/20260401233710.452